[{"OBJECT_NAME":"DONGPO 08","OBJECT_ID":"2022-167E","EPOCH":"2026-03-09T22:57:52.742880","MEAN_MOTION":15.31542505,"ECCENTRICITY":0.00092155,"INCLINATION":97.6764,"RA_OF_ASC_NODE":233.3854,"ARG_OF_PERICENTER":153.9158,"MEAN_ANOMALY":206.2548,"EPHEMERIS_TYPE":0,"CLASSIFICATION_TYPE":"U","NORAD_CAT_ID":54686,"ELEMENT_SET_NO":999,"REV_AT_EPOCH":18012,"BSTAR":0.0004734784,"MEAN_MOTION_DOT":0.0001437,"MEAN_MOTION_DDOT":0},{"OBJECT_NAME":"STARLINK-34844","OBJECT_ID":"2025-263B","EPOCH":"2026-03-09T02:37:31.688256","MEAN_MOTION":15.27577164,"ECCENTRICITY":0.00017896,"INCLINATION":43.0041,"RA_OF_ASC_NODE":353.6766,"ARG_OF_PERICENTER":255.4562,"MEAN_ANOMALY":104.6092,"EPHEMERIS_TYPE":0,"CLASSIFICATION_TYPE":"U","NORAD_CAT_ID":66486,"ELEMENT_SET_NO":999,"REV_AT_EPOCH":1876,"BSTAR":0.0016705604,"MEAN_MOTION_DOT":0.00045992,"MEAN_MOTION_DDOT":0}]
